{"fetched_at":"2026-03-28T16:33:49Z","count":6709,"tles":[{"name":"UFO 2 (USA 95)","line1":"1 22787U 93056A   26086.97822620  .00000112  00000+0  00000+0 0  9999","line2":"2 22787  11.8670   3.9952 0008961 345.4330 216.7946  1.00274849117734","category":"Military"}]}